[{"OBJECT_NAME":"TYVAK-0130","OBJECT_ID":"2021-041BF","EPOCH":"2026-03-09T11:37:42.710304","MEAN_MOTION":15.26049141,"ECCENTRICITY":0.0008953,"INCLINATION":52.9967,"RA_OF_ASC_NODE":128.603,"ARG_OF_PERICENTER":215.1647,"MEAN_ANOMALY":144.876,"EPHEMERIS_TYPE":0,"CLASSIFICATION_TYPE":"U","NORAD_CAT_ID":48606,"ELEMENT_SET_NO":999,"REV_AT_EPOCH":26515,"BSTAR":0.0003519806,"MEAN_MOTION_DOT":8.857e-5,"MEAN_MOTION_DDOT":0},{"OBJECT_NAME":"SITRO-AIS-62","OBJECT_ID":"2025-313BA","EPOCH":"2026-03-09T22:28:04.503072","MEAN_MOTION":15.2313984,"ECCENTRICITY":0.00083903,"INCLINATION":97.4013,"RA_OF_ASC_NODE":145.3565,"ARG_OF_PERICENTER":355.0929,"MEAN_ANOMALY":5.0224,"EPHEMERIS_TYPE":0,"CLASSIFICATION_TYPE":"U","NORAD_CAT_ID":67296,"ELEMENT_SET_NO":999,"REV_AT_EPOCH":1086,"BSTAR":0.00055522855,"MEAN_MOTION_DOT":0.00013063,"MEAN_MOTION_DDOT":0}]
